CZ-10B DEB              
1 69973U 26158B   26194.58513205  .00000099  00000+0  11013-3 0  9993
2 69973  49.9846 287.2193 0005701 305.8104  54.2279 14.24885997   479
CZ-10B R/B              
1 69974U 26158C   26194.56253036  .00000143  00000+0  55130-4 0  9994
2 69974  49.9631 286.3519 0197944 194.8878 164.6170 14.64293949   480
STARLINK-38024          
1 69975U 26159A   26198.16668980 -.02026560  11083-2 -64800-2 0  9997
2 69975  97.2863  36.9253 0001366  85.7918 253.7764 15.91190434  2176
STARLINK-37993          
1 69976U 26159B   26198.16668980 -.01989777  10729-2 -63000-2 0  9992
2 69976  97.2862  36.9258 0001431  86.8083 254.3979 15.91379632  2173
STARLINK-37995          
1 69977U 26159C   26198.16668980 -.01974968  10600-2 -61912-2 0  9997
2 69977  97.2863  36.9266 0001317  85.4100 257.4985 15.91573068  2172
STARLINK-38057          
1 69978U 26159D   26198.16668980 -.01959878  10469-2 -60848-2 0  9991
2 69978  97.2862  36.9271 0001318  84.0205 260.7003 15.91760312  2178
STARLINK-38063          
1 69979U 26159E   26198.16668980 -.01950487  10395-2 -59973-2 0  9994
2 69979  97.2862  36.9281 0001334  83.0710 263.4903 15.91948184  2172
STARLINK-38093          
1 69980U 26159F   26198.16668980 -.01947649  10386-2 -59312-2 0  9999
2 69980  97.2861  36.9287 0001328  87.5727 260.8513 15.92135316  2173
STARLINK-38050          
1 69981U 26159G   26198.16668980 -.01930700  10236-2 -58262-2 0  9997
2 69981  97.2863  36.9296 0001352  82.1672 267.9904 15.92310751  2173
STARLINK-38065          
1 69982U 26159H   26198.16668980 -.01919491  10143-2 -57389-2 0  9998
2 69982  97.2861  36.9303 0001399  81.4133 270.5323 15.92488981  2172
STARLINK-38077          
1 69983U 26159J   26198.16668980 -.01899722  99656-3 -56299-2 0  9999
2 69983  97.2863  36.9310 0001338  80.5752 273.1257 15.92657719  2175
STARLINK-38068          
1 69984U 26159K   26198.16668980 -.01880784  97970-3 -55258-2 0  9999
2 69984  97.2862  36.9317 0001329  81.1855 274.0884 15.92822379  2175
STARLINK-38089          
1 69985U 26159L   26198.16668980 -.01869689  97059-3 -54453-2 0  9995
2 69985  97.2862  36.9325 0001392  78.2565 278.8121 15.92989983  2171
STARLINK-38073          
1 69986U 26159M   26198.16668980 -.01848936  95210-3 -53397-2 0  9991
2 69986  97.2862  36.9331 0001361  79.9233 278.8082 15.93149574  2176
STARLINK-38099          
1 69987U 26159N   26198.16668980 -.01827292  93287-3 -52339-2 0  9991
2 69987  97.2863  36.9337 0001341  79.8352 280.4804 15.93304999  2178
STARLINK-38064          
1 69988U 26159P   26198.16668980 -.01829827  93848-3 -51526-2 0  9998
2 69988  97.2861  36.9348 0001376  78.8317 284.7924 15.93632012  2177
STARLINK-38080          
1 69989U 26159Q   26198.16668980 -.01830727  93775-3 -51990-2 0  9994
2 69989  97.2860  36.9344 0001386  77.1611 284.8414 15.93469703  2173
STARLINK-38070          
1 69990U 26159R   26198.16668980 -.01815572  92633-3 -50713-2 0  9991
2 69990  97.2860  36.9356 0001310  76.9890 288.3225 15.93784562  2173
STARLINK-38042          
1 69991U 26159S   26198.16668980 -.01801299  91416-3 -49924-2 0  9993
2 69991  97.2859  36.9362 0001358  79.4954 287.2601 15.93931221  2172
STARLINK-38071          
1 69992U 26159T   26198.16668980 -.01789613  90451-3 -49215-2 0  9990
2 69992  97.2859  36.9369 0001387  79.0843 289.1624 15.94078117  2178
STARLINK-38082          
1 69993U 26159U   26198.16668980 -.01774329  89149-3 -48420-2 0  9998
2 69993  97.2860  36.9374 0001335  76.9592 292.7912 15.94222787  2171
STARLINK-38090          
1 69994U 26159V   26198.16668980 -.01763214  88241-3 -47754-2 0  9991
2 69994  97.2860  36.9382 0001360  83.0154 288.2763 15.94365145  2172
STARLINK-38084          
1 69995U 26159W   26198.16668980 -.01754924  87604-3 -47156-2 0  9998
2 69995  97.2860  36.9389 0001359  73.9415 298.9906 15.94513247  2171
STARLINK-38085          
1 69996U 26159X   26198.16668980 -.01731386  85542-3 -46199-2 0  9991
2 69996  97.2859  36.9396 0001276  81.3928 292.9530 15.94642909  2173
STARLINK-38091          
1 69997U 26159Y   26198.16668980 -.01728798  85434-3 -45778-2 0  9997
2 69997  97.2860  36.9401 0001384  71.7574 304.1858 15.94786977  2176
STARLINK-38086          
1 69998U 26159Z   26198.16668980 -.01719930  84742-3 -45208-2 0  9995
2 69998  97.2859  36.9409 0001275  79.7909 297.6419 15.94925466  2179
