OBJECT_NAME,OBJECT_ID,EPOCH,MEAN_MOTION,ECCENTRICITY,INCLINATION,RA_OF_ASC_NODE,ARG_OF_PERICENTER,MEAN_ANOMALY,EPHEMERIS_TYPE,CLASSIFICATION_TYPE,NORAD_CAT_ID,ELEMENT_SET_NO,REV_AT_EPOCH,BSTAR,MEAN_MOTION_DOT,MEAN_MOTION_DDOT
CZ-10B DEB,2026-158B,2026-07-13T14:02:35.409120,14.24885997,.0005701,49.9846,287.2193,305.8104,54.2279,0,U,69973,999,47,.11013E-3,.99E-6,0
CZ-10B R/B,2026-158C,2026-07-13T13:30:02.623104,14.64293949,.01979448,49.9631,286.3519,194.8878,164.6170,0,U,69974,999,48,.55130296E-4,.143E-5,0
STARLINK-38024,2026-159A,2026-07-17T04:00:01.998720,15.91190434,.0001366,97.2863,36.9253,85.7918,253.7764,0,U,69975,999,217,-.648E-2,-.202656E-1,.11083E-2
STARLINK-37993,2026-159B,2026-07-17T04:00:01.998720,15.91379632,.0001431,97.2862,36.9258,86.8083,254.3979,0,U,69976,999,217,-.63E-2,-.1989777E-1,.10729E-2
STARLINK-37995,2026-159C,2026-07-17T04:00:01.998720,15.91573068,.0001317,97.2863,36.9266,85.4100,257.4985,0,U,69977,999,217,-.61912E-2,-.1974968E-1,.106E-2
STARLINK-38057,2026-159D,2026-07-17T04:00:01.998720,15.91760312,.0001318,97.2862,36.9271,84.0205,260.7003,0,U,69978,999,217,-.60848E-2,-.1959878E-1,.10469E-2
STARLINK-38063,2026-159E,2026-07-17T04:00:01.998720,15.91948184,.0001334,97.2862,36.9281,83.0710,263.4903,0,U,69979,999,217,-.59973E-2,-.1950487E-1,.10395E-2
STARLINK-38093,2026-159F,2026-07-17T04:00:01.998720,15.92135316,.0001328,97.2861,36.9287,87.5727,260.8513,0,U,69980,999,217,-.59312E-2,-.1947649E-1,.10386E-2
STARLINK-38050,2026-159G,2026-07-17T04:00:01.998720,15.92310751,.0001352,97.2863,36.9296,82.1672,267.9904,0,U,69981,999,217,-.58262E-2,-.19307E-1,.10236E-2
STARLINK-38065,2026-159H,2026-07-17T04:00:01.998720,15.92488981,.0001399,97.2861,36.9303,81.4133,270.5323,0,U,69982,999,217,-.57389E-2,-.1919491E-1,.10143E-2
STARLINK-38077,2026-159J,2026-07-17T04:00:01.998720,15.92657719,.0001338,97.2863,36.9310,80.5752,273.1257,0,U,69983,999,217,-.56299E-2,-.1899722E-1,.99656E-3
STARLINK-38068,2026-159K,2026-07-17T04:00:01.998720,15.92822379,.0001329,97.2862,36.9317,81.1855,274.0884,0,U,69984,999,217,-.55258E-2,-.1880784E-1,.9797E-3
STARLINK-38089,2026-159L,2026-07-17T04:00:01.998720,15.92989983,.0001392,97.2862,36.9325,78.2565,278.8121,0,U,69985,999,217,-.54453E-2,-.1869689E-1,.97059E-3
STARLINK-38073,2026-159M,2026-07-17T04:00:01.998720,15.93149574,.0001361,97.2862,36.9331,79.9233,278.8082,0,U,69986,999,217,-.53397E-2,-.1848936E-1,.9521E-3
STARLINK-38099,2026-159N,2026-07-17T04:00:01.998720,15.93304999,.0001341,97.2863,36.9337,79.8352,280.4804,0,U,69987,999,217,-.52339E-2,-.1827292E-1,.93287E-3
STARLINK-38064,2026-159P,2026-07-17T04:00:01.998720,15.93632012,.0001376,97.2861,36.9348,78.8317,284.7924,0,U,69988,999,217,-.51526E-2,-.1829827E-1,.93848E-3
STARLINK-38080,2026-159Q,2026-07-17T04:00:01.998720,15.93469703,.0001386,97.2860,36.9344,77.1611,284.8414,0,U,69989,999,217,-.5199E-2,-.1830727E-1,.93775E-3
STARLINK-38070,2026-159R,2026-07-17T04:00:01.998720,15.93784562,.000131,97.2860,36.9356,76.9890,288.3225,0,U,69990,999,217,-.50713E-2,-.1815572E-1,.92633E-3
STARLINK-38042,2026-159S,2026-07-17T04:00:01.998720,15.93931221,.0001358,97.2859,36.9362,79.4954,287.2601,0,U,69991,999,217,-.49924E-2,-.1801299E-1,.91416E-3
STARLINK-38071,2026-159T,2026-07-17T04:00:01.998720,15.94078117,.0001387,97.2859,36.9369,79.0843,289.1624,0,U,69992,999,217,-.49215E-2,-.1789613E-1,.90451E-3
STARLINK-38082,2026-159U,2026-07-17T04:00:01.998720,15.94222787,.0001335,97.2860,36.9374,76.9592,292.7912,0,U,69993,999,217,-.4842E-2,-.1774329E-1,.89149E-3
STARLINK-38090,2026-159V,2026-07-17T04:00:01.998720,15.94365145,.000136,97.2860,36.9382,83.0154,288.2763,0,U,69994,999,217,-.47754E-2,-.1763214E-1,.88241E-3
STARLINK-38084,2026-159W,2026-07-17T04:00:01.998720,15.94513247,.0001359,97.2860,36.9389,73.9415,298.9906,0,U,69995,999,217,-.47156E-2,-.1754924E-1,.87604E-3
STARLINK-38085,2026-159X,2026-07-17T04:00:01.998720,15.94642909,.0001276,97.2859,36.9396,81.3928,292.9530,0,U,69996,999,217,-.46199E-2,-.1731386E-1,.85542E-3
STARLINK-38091,2026-159Y,2026-07-17T04:00:01.998720,15.94786977,.0001384,97.2860,36.9401,71.7574,304.1858,0,U,69997,999,217,-.45778E-2,-.1728798E-1,.85434E-3
STARLINK-38086,2026-159Z,2026-07-17T04:00:01.998720,15.94925466,.0001275,97.2859,36.9409,79.7909,297.6419,0,U,69998,999,217,-.45208E-2,-.171993E-1,.84742E-3
